[{"OBJECT_NAME":"STARLINK-30307","OBJECT_ID":"2023-131R","EPOCH":"2026-03-09T22:00:01.999584","MEAN_MOTION":15.1030378,"ECCENTRICITY":0.00012287,"INCLINATION":42.9997,"RA_OF_ASC_NODE":170.3125,"ARG_OF_PERICENTER":287.4299,"MEAN_ANOMALY":343.9738,"EPHEMERIS_TYPE":0,"CLASSIFICATION_TYPE":"U","NORAD_CAT_ID":57747,"ELEMENT_SET_NO":999,"REV_AT_EPOCH":547,"BSTAR":0.04463956,"MEAN_MOTION_DOT":0.00797266,"MEAN_MOTION_DDOT":0},{"OBJECT_NAME":"DUTHSAT-2","OBJECT_ID":"2025-135C","EPOCH":"2026-03-09T21:32:17.103552","MEAN_MOTION":15.24292207,"ECCENTRICITY":0.00054547,"INCLINATION":97.4491,"RA_OF_ASC_NODE":185.111,"ARG_OF_PERICENTER":168.1696,"MEAN_ANOMALY":191.967,"EPHEMERIS_TYPE":0,"CLASSIFICATION_TYPE":"U","NORAD_CAT_ID":64530,"ELEMENT_SET_NO":999,"REV_AT_EPOCH":3979,"BSTAR":0.00073395674,"MEAN_MOTION_DOT":0.00017894,"MEAN_MOTION_DDOT":0}]
